ONEWEB-0414             
1 50491U 21132Y   25174.88171222  .00000566  00000+0  14014-2 0  9996
2 50491  87.9129  46.6344 0001593  84.1506 275.9808 13.18702899174409
ONEWEB-0417             
1 50492U 21132Z   25174.88968127  .00000031  00000+0  45024-4 0  9999
2 50492  87.9142  46.6627 0001761  76.6814 283.4515 13.18672948174381
ONEWEB-0418             
1 50493U 21132AA  25174.59556496 -.00001998  00000+0 -51037-2 0  9994
2 50493  87.9147  46.7085 0001694  76.2493 283.8827 13.18644104175687
ONEWEB-0419             
1 50494U 21132AB  25174.91673202 -.00003703  00000+0 -94420-2 0  9995
2 50494  87.9135  46.6479 0002039  75.2197 284.9161 13.18586588175656
ONEWEB-0420             
1 50495U 21132AC  25174.88330829  .00000434  00000+0  10676-2 0  9994
2 50495  87.9131  46.6641 0002039  90.5960 269.5405 13.18697513174359
ONEWEB-0421             
1 50496U 21132AD  25174.87693542  .00001174  00000+0  29428-2 0  9995
2 50496  87.9137  46.6580 0001631  86.6454 273.4865 13.18717268174397
ONEWEB-0424             
1 50497U 21132AE  25174.91198460 -.00000005  00000+0 -44998-4 0  9995
2 50497  87.9141  46.6431 0002166  74.4972 285.6399 13.18588802174423
ONEWEB-0426             
1 50498U 21132AF  25174.87376018  .00001496  00000+0  37593-2 0  9992
2 50498  87.9123  46.6489 0001124  69.9606 290.1647 13.18727420175657
